NORAD_CAT_ID,OBJECT_NAME,OBJECT_TYPE,EPOCH,MEAN_MOTION,ECCENTRICITY,INCLINATION,RA_OF_ASC_NODE,ARG_OF_PERICENTER,MEAN_ANOMALY,BSTAR,MEAN_MOTION_DOT,MEAN_MOTION_DDOT,TLE_LINE0,TLE_LINE1,TLE_LINE2,SEMIMAJOR_AXIS,PERIOD,APOGEE,PERIGEE,DECAYED
54794.0,STARLINK-5392,PAYLOAD,2024-06-30 15:41:21,15.12115843,0.0001133,53.2183,279.8149,77.4535,282.6585,-0.00016692,-3.204e-05,0.0,0 STARLINK-5392,1 54794U 22175AN  24182.65371803 -.00003204  00000-0 -16692-3 0  9994,2 54794  53.2183 279.8149 0001133  77.4535 282.6585 15.12115843 86979,6907.886,95.231,530.533,528.968,0.0
54794.0,STARLINK-5392,PAYLOAD,2024-07-01 12:18:41,15.12108,9.11e-05,53.2169,275.938,72.498,287.6113,-0.00013725,-2.687e-05,0.0,0 STARLINK-5392,1 54794U 22175AN  24183.51297614 -.00002687  00000-0 -13725-3 0  9995,2 54794  53.2169 275.9380 0000911  72.4980 287.6113 15.12108000 84943,6907.909,95.231,530.404,529.145,0.0
54794.0,STARLINK-5392,PAYLOAD,2024-07-01 13:53:51,15.12106229,0.0001154,53.2171,275.64,53.2989,306.811,-7.7859e-05,-1.653e-05,0.0,0 STARLINK-5392,1 54794U 22175AN  24183.57907228 -.00001653  00000-0 -77859-4 0  9991,2 54794  53.2171 275.6400 0001154  53.2989 306.8110 15.12106229 87116,6907.915,95.231,530.577,528.983,0.0
54794.0,STARLINK-5392,PAYLOAD,2024-07-01 23:24:55,15.12113853,9.98e-05,53.2173,273.8487,79.9413,280.1693,-1.9154e-05,-6.31e-06,0.0,0 STARLINK-5392,1 54794U 22175AN  24183.97564385 -.00000631  00000-0 -19154-4 0  9997,2 54794  53.2173 273.8487 0000998  79.9413 280.1693 15.12113853 85013,6907.892,95.231,530.446,529.067,0.0
54794.0,STARLINK-5392,PAYLOAD,2024-07-02 12:06:21,15.12106419,0.0001199,53.2162,271.4646,79.9633,280.1496,7.4329e-05,9.98e-06,0.0,0 STARLINK-5392,1 54794U 22175AN  24184.50442019  .00000998  00000-0  74329-4 0  9995,2 54794  53.2162 271.4646 0001199  79.9633 280.1496 15.12106419 87259,6907.914,95.231,530.607,528.951,0.0
54794.0,STARLINK-5392,PAYLOAD,2024-07-03 11:54:02,15.12112421,0.0001404,53.2159,266.9917,75.6272,284.4877,9.0004e-05,1.271e-05,0.0,0 STARLINK-5392,1 54794U 22175AN  24185.49586632  .00001271  00000-0  90004-4 0  9997,2 54794  53.2159 266.9917 0001404  75.6272 284.4877 15.12112421 87403,6907.896,95.231,530.731,528.791,0.0
54794.0,STARLINK-5392,PAYLOAD,2024-07-03 23:00:18,15.12114142,0.0001226,53.2158,264.9035,71.2529,288.8598,3.2782e-05,2.74e-06,0.0,0 STARLINK-5392,1 54794U 22175AN  24185.95854242  .00000274  00000-0  32782-4 0  9994,2 54794  53.2158 264.9035 0001226  71.2529 288.8598 15.12114142 85318,6907.891,95.231,530.603,528.909,0.0
54794.0,STARLINK-5392,PAYLOAD,2024-07-04 11:41:43,15.12114377,0.0001344,53.216,262.5189,76.0111,284.1032,3.7392e-05,3.54e-06,0.0,0 STARLINK-5392,1 54794U 22175AN  24186.48731386  .00000354  00000-0  37392-4 0  9997,2 54794  53.2160 262.5189 0001344  76.0111 284.1032 15.12114377 87556,6907.89,95.231,530.683,528.827,0.0
54794.0,STARLINK-5392,PAYLOAD,2024-07-04 14:52:05,15.12119698,0.000137,53.2167,261.9215,80.4708,279.6441,1.8748e-05,2.9e-07,0.0,0 STARLINK-5392,1 54794U 22175AN  24186.61950378  .00000029  00000-0  18748-4 0  9999,2 54794  53.2167 261.9215 0001370  80.4708 279.6441 15.12119698 87572,6907.874,95.231,530.685,528.792,0.0
54794.0,STARLINK-5392,PAYLOAD,2024-07-05 11:29:24,15.12116448,0.0001285,53.2177,258.0443,84.5256,275.5884,-2.8813e-06,-3.48e-06,0.0,0 STARLINK-5392,1 54794U 22175AN  24187.47875785 -.00000348  00000-0 -28813-5 0  9993,2 54794  53.2177 258.0443 0001285  84.5256 275.5884 15.12116448 85542,6907.884,95.231,530.636,528.861,0.0
54794.0,STARLINK-5392,PAYLOAD,2024-07-06 14:27:27,15.12113677,0.0001291,53.2175,252.9745,88.5766,271.5375,-3.1382e-05,-8.44e-06,0.0,0 STARLINK-5392,1 54794U 22175AN  24188.60239915 -.00000844  00000-0 -31382-4 0  9993,2 54794  53.2175 252.9745 0001291  88.5766 271.5375 15.12113677 87875,6907.892,95.231,530.649,528.865,0.0
54794.0,STARLINK-5392,PAYLOAD,2024-07-06 20:48:10,15.12113177,0.0001287,53.2175,251.7815,87.9661,272.148,-3.0319e-05,-8.25e-06,0.0,0 STARLINK-5392,1 54794U 22175AN  24188.86678495 -.00000825  00000-0 -30319-4 0  9999,2 54794  53.2175 251.7815 0001287  87.9661 272.1480 15.12113177 87916,6907.894,95.231,530.648,528.87,0.0
54794.0,STARLINK-5392,PAYLOAD,2024-07-07 11:04:46,15.12113484,0.0001223,53.2172,249.0971,84.9066,275.2067,1.236e-06,-2.76e-06,0.0,0 STARLINK-5392,1 54794U 22175AN  24189.46165081 -.00000276  00000-0  12360-5 0  9994,2 54794  53.2172 249.0971 0001223  84.9066 275.2067 15.12113484 88009,6907.893,95.231,530.603,528.913,0.0
54794.0,STARLINK-5392,PAYLOAD,2024-07-08 10:52:27,15.1211144,0.0001206,53.2166,244.6243,85.0992,275.0139,-5.3804e-06,-3.91e-06,0.0,0 STARLINK-5392,1 54794U 22175AN  24190.45309947 -.00000391  00000-0 -53804-5 0  9993,2 54794  53.2166 244.6243 0001206  85.0992 275.0139 15.12111440 85999,6907.899,95.231,530.597,528.931,0.0
54794.0,STARLINK-5392,PAYLOAD,2024-07-08 20:23:31,15.12114535,0.0001227,53.2168,242.8347,83.4154,276.6979,2.4314e-05,1.26e-06,0.0,0 STARLINK-5392,1 54794U 22175AN  24190.84967493  .00000126  00000-0  24314-4 0  9999,2 54794  53.2168 242.8347 0001227  83.4154 276.6979 15.12114535 88216,6907.89,95.231,530.602,528.907,0.0
54794.0,STARLINK-5392,PAYLOAD,2024-07-09 10:40:08,15.12112833,0.000138,53.2178,240.1513,81.6516,278.4634,-4.0448e-07,-3.04e-06,0.0,0 STARLINK-5392,1 54794U 22175AN  24191.44454528 -.00000304  00000-0 -40448-6 0  9994,2 54794  53.2178 240.1513 0001380  81.6516 278.4634 15.12112833 88302,6907.895,95.231,530.713,528.806,0.0
54794.0,STARLINK-5392,PAYLOAD,2024-07-10 04:07:06,15.12112489,0.0001406,53.2178,236.8708,80.5344,279.5808,-2.5836e-06,-3.42e-06,0.0,0 STARLINK-5392,1 54794U 22175AN  24192.17160710 -.00000342  00000-0 -25836-5 0  9997,2 54794  53.2178 236.8708 0001406  80.5344 279.5808 15.12112489 86250,6907.896,95.231,530.732,528.789,0.0
54794.0,STARLINK-5392,PAYLOAD,2024-07-10 12:03:00,15.12115309,0.0001407,53.2175,235.3797,79.4563,280.6589,1.5213e-05,-3.2e-07,0.0,0 STARLINK-5392,1 54794U 22175AN  24192.50208699 -.00000032  00000-0  15213-4 0  9995,2 54794  53.2175 235.3797 0001407  79.4563 280.6589 15.12115309 88468,6907.887,95.231,530.724,528.78,0.0
54794.0,STARLINK-5392,PAYLOAD,2024-07-11 11:50:41,15.1211465,0.0001351,53.217,230.9063,82.4972,277.6175,2.3539e-06,-2.56e-06,0.0,0 STARLINK-5392,1 54794U 22175AN  24193.49353317 -.00000256  00000-0  23539-5 0  9991,2 54794  53.2170 230.9063 0001351  82.4972 277.6175 15.12114650 88618,6907.889,95.231,530.687,528.821,0.0
54794.0,STARLINK-5392,PAYLOAD,2024-07-11 19:46:35,15.12112741,0.0001335,53.217,229.4153,84.1515,275.9631,-1.3721e-06,-3.21e-06,0.0,0 STARLINK-5392,1 54794U 22175AN  24193.82401676 -.00000321  00000-0 -13721-5 0  9996,2 54794  53.2170 229.4153 0001335  84.1515 275.9631 15.12112741 88667,6907.895,95.231,530.682,528.838,0.0
54794.0,STARLINK-5392,PAYLOAD,2024-07-12 11:38:21,15.12120141,0.0001325,53.2166,226.4332,82.4618,277.6526,3.488e-05,3.1e-06,0.0,0 STARLINK-5392,1 54794U 22175AN  24194.48497438  .00000310  00000-0  34880-4 0  9994,2 54794  53.2166 226.4332 0001325  82.4618 277.6526 15.12120141 88768,6907.872,95.231,530.653,528.822,0.0
54794.0,STARLINK-5392,PAYLOAD,2024-07-12 19:34:15,15.12119466,0.0001336,53.2165,224.9426,81.1128,279.0017,1.1115e-05,-1.04e-06,0.0,0 STARLINK-5392,1 54794U 22175AN  24194.81545703 -.00000104  00000-0  11115-4 0  9998,2 54794  53.2165 224.9426 0001336  81.1128 279.0017 15.12119466 86653,6907.874,95.231,530.662,528.817,0.0
54794.0,STARLINK-5392,PAYLOAD,2024-07-13 08:15:41,15.12115563,0.0001342,53.2162,222.5569,83.8133,276.3013,1.7774e-05,1.2e-07,0.0,0 STARLINK-5392,1 54794U 22175AN  24195.34422992  .00000012  00000-0  17774-4 0  9995,2 54794  53.2162 222.5569 0001342  83.8133 276.3013 15.12115563 88892,6907.886,95.231,530.678,528.824,0.0
54794.0,STARLINK-5392,PAYLOAD,2024-07-13 19:21:56,15.12116968,0.0001344,53.2164,220.4692,84.2741,275.8406,3.909e-05,3.84e-06,0.0,0 STARLINK-5392,1 54794U 22175AN  24195.80690280  .00000384  00000-0  39090-4 0  9990,2 54794  53.2164 220.4692 0001344  84.2741 275.8406 15.12116968 88968,6907.882,95.231,530.676,528.819,0.0
54794.0,STARLINK-5392,PAYLOAD,2024-07-14 04:53:00,15.1211895,0.0001371,53.2166,218.6791,88.3426,271.7725,-5.7147e-06,-3.97e-06,0.0,0 STARLINK-5392,1 54794U 22175AN  24196.20348110 -.00000397  00000-0 -57147-5 0  9997,2 54794  53.2166 218.6791 0001371  88.3426 271.7725 15.12118950 86863,6907.876,95.231,530.688,528.794,0.0
54794.0,STARLINK-5392,PAYLOAD,2024-07-14 08:03:22,15.12114995,0.0001321,53.2169,218.083,86.4327,273.6817,-2.421e-05,-7.19e-06,0.0,0 STARLINK-5392,1 54794U 22175AN  24196.33567690 -.00000719  00000-0 -24210-4 0  9999,2 54794  53.2169 218.0830 0001321  86.4327 273.6817 15.12114995 89049,6907.888,95.231,530.666,528.841,0.0
54794.0,STARLINK-5392,PAYLOAD,2024-07-15 11:01:24,15.12118375,0.000129,53.2172,213.0127,90.1893,269.9248,2.2928e-05,1.02e-06,0.0,0 STARLINK-5392,1 54794U 22175AN  24197.45931042  .00000102  00000-0  22928-4 0  9997,2 54794  53.2172 213.0127 0001290  90.1893 269.9248 15.12118375 87053,6907.878,95.231,530.634,528.852,0.0
54794.0,STARLINK-5392,PAYLOAD,2024-07-16 10:49:06,15.12105894,0.0001262,53.2169,208.5391,92.0108,268.103,-4.0237e-05,-9.98e-06,0.0,0 STARLINK-5392,1 54794U 22175AN  24198.45076606 -.00000998  00000-0 -40237-4 0  9992,2 54794  53.2169 208.5391 0001262  92.0108 268.1030 15.12105894 87209,6907.916,95.231,530.653,528.909,0.0
54794.0,STARLINK-5392,PAYLOAD,2024-07-17 04:16:03,15.12116919,0.0001275,53.2174,205.2587,91.7555,268.3585,4.6173e-06,-2.17e-06,0.0,0 STARLINK-5392,1 54794U 22175AN  24199.17781868 -.00000217  00000-0  46173-5 0  9994,2 54794  53.2174 205.2587 0001275  91.7555 268.3585 15.12116919 87311,6907.882,95.231,530.628,528.866,0.0
54794.0,STARLINK-5392,PAYLOAD,2024-07-17 07:26:24,15.12118668,0.0001224,53.217,204.663,88.2175,271.8959,8.756e-06,-1.45e-06,0.0,0 STARLINK-5392,1 54794U 22175AN  24199.31001004 -.00000145  00000-0  87560-5 0  9992,2 54794  53.2170 204.6630 0001224  88.2175 271.8959 15.12118668 89490,6907.877,95.231,530.587,528.896,0.0
